start=new Date('2022-03-16T00:00:00.000Z').valueOf();
sats=[{"EPOCH":"2022-03-15T22:00:00.999936","MEAN_ELEMENT_THEORY":"SGP4","PERIAPSIS":"349.577","MEAN_MOTION_DDOT":"0.0000000000000","COUNTRY_CODE":"US","NORAD_CAT_ID":"51804","REV_AT_EPOCH":"338","BSTAR":"0.00162600000000","LAUNCH_DATE":"2022-02-25","ECCENTRICITY":"0.00013690","RCS_SIZE":"LARGE","REF_FRAME":"TEME","GP_ID":"198850569","MEAN_MOTION":"15.72941051","CLASSIFICATION_TYPE":"U","OBJECT_TYPE":"PAYLOAD","TIME_SYSTEM":"UTC","INCLINATION":"53.2214","APOAPSIS":"351.420","MEAN_MOTION_DOT":"0.00231398","OBJECT_ID":"2022-017AN","CENTER_NAME":"EARTH","TLE_LINE1":"1 51804U 22017AN  22074.91667824  .00231398  00000-0  16260-2 0  9991","TLE_LINE2":"2 51804  53.2214  53.1156 0001369  61.1232 174.0422 15.72941051  3381","PERIOD":"91.548","SITE":"AFWTR","FILE":"3360930","OBJECT_NAME":"STARLINK-3601","EPHEMERIS_TYPE":"0","ELEMENT_SET_NO":"999","ARG_OF_PERICENTER":"61.1232","MEAN_ANOMALY":"174.0422","RA_OF_ASC_NODE":"53.1156","SEMIMAJOR_AXIS":"6728.634","DECAY_DATE":null},{"BSTAR":"0.00116860000000","LAUNCH_DATE":"2022-02-25","RCS_SIZE":"LARGE","ECCENTRICITY":"0.00013270","GP_ID":"198850774","REF_FRAME":"TEME","MEAN_MOTION":"15.72988754","NORAD_CAT_ID":"51805","REV_AT_EPOCH":"338","MEAN_MOTION_DDOT":"0.0000000000000","COUNTRY_CODE":"US","EPOCH":"2022-03-15T22:00:00.999936","PERIAPSIS":"349.470","MEAN_ELEMENT_THEORY":"SGP4","OBJECT_TYPE":"PAYLOAD","TIME_SYSTEM":"UTC","INCLINATION":"53.2190","CLASSIFICATION_TYPE":"U","PERIOD":"91.545","TLE_LINE2":"2 51805  53.2190  53.1354 0001327  65.7133 158.2492 15.72988754  3381","SITE":"AFWTR","FILE":"3360930","EPHEMERIS_TYPE":"0","OBJECT_NAME":"STARLINK-3605","ELEMENT_SET_NO":"999","TLE_LINE1":"1 51805U 22017AP  22074.91667824  .00165147  00000-0  11686-2 0  9997","OBJECT_ID":"2022-017AP","CENTER_NAME":"EARTH","APOAPSIS":"351.255","MEAN_MOTION_DOT":"0.00165147","DECAY_DATE":null,"SEMIMAJOR_AXIS":"6728.498","MEAN_ANOMALY":"158.2492","RA_OF_ASC_NODE":"53.1354","ARG_OF_PERICENTER":"65.7133"},{"NORAD_CAT_ID":"51806","REV_AT_EPOCH":"338","LAUNCH_DATE":"2022-02-25","BSTAR":"0.00176160000000","GP_ID":"198850671","MEAN_MOTION":"15.72942073","REF_FRAME":"TEME","RCS_SIZE":"LARGE","ECCENTRICITY":"0.00013290","MEAN_ELEMENT_THEORY":"SGP4","PERIAPSIS":"349.601","EPOCH":"2022-03-15T22:00:00.999936","MEAN_MOTION_DDOT":"0.0000000000000","COUNTRY_CODE":"US","TIME_SYSTEM":"UTC","OBJECT_TYPE":"PAYLOAD","INCLINATION":"53.2195","CLASSIFICATION_TYPE":"U","TLE_LINE1":"1 51806U 22017AQ  22074.91667824  .00251362  00000-0  17616-2 0  9992","SITE":"AFWTR","TLE_LINE2":"2 51806  53.2195  53.1296 0001329  68.6485 158.5594 15.72942073  3386","PERIOD":"91.548","ELEMENT_SET_NO":"999","OBJECT_NAME":"STARLINK-3581","FILE":"3360930","EPHEMERIS_TYPE":"0","APOAPSIS":"351.390","MEAN_MOTION_DOT":"0.00251362","OBJECT_ID":"2022-017AQ","CENTER_NAME":"EARTH","SEMIMAJOR_AXIS":"6728.631","DECAY_DATE":null,"ARG_OF_PERICENTER":"68.6485","MEAN_ANOMALY":"158.5594","RA_OF_ASC_NODE":"53.1296"},{"EPOCH":"2022-03-15T22:00:00.999936","MEAN_ELEMENT_THEORY":"SGP4","PERIAPSIS":"349.657","MEAN_MOTION_DDOT":"0.0000000000000","COUNTRY_CODE":"US","NORAD_CAT_ID":"51807","REV_AT_EPOCH":"338","BSTAR":"0.00142050000000","LAUNCH_DATE":"2022-02-25","ECCENTRICITY":"0.00011280","RCS_SIZE":"LARGE","GP_ID":"198850875","MEAN_MOTION":"15.72970013","REF_FRAME":"TEME","CLASSIFICATION_TYPE":"U","OBJECT_TYPE":"PAYLOAD","TIME_SYSTEM":"UTC","INCLINATION":"53.2190","APOAPSIS":"351.175","MEAN_MOTION_DOT":"0.00201600","OBJECT_ID":"2022-017AR","CENTER_NAME":"EARTH","TLE_LINE1":"1 51807U 22017AR  22074.91667824  .00201600  00000-0  14205-2 0  9994","PERIOD":"91.547","TLE_LINE2":"2 51807  53.2190  53.1326 0001128  69.0422 156.2125 15.72970013  3389","SITE":"AFWTR","FILE":"3360930","OBJECT_NAME":"STARLINK-3606","EPHEMERIS_TYPE":"0","ELEMENT_SET_NO":"999","ARG_OF_PERICENTER":"69.0422","MEAN_ANOMALY":"156.2125","RA_OF_ASC_NODE":"53.1326","SEMIMAJOR_AXIS":"6728.551","DECAY_DATE":null},{"INCLINATION":"53.2196","TIME_SYSTEM":"UTC","OBJECT_TYPE":"PAYLOAD","CLASSIFICATION_TYPE":"U","MEAN_MOTION":"15.72952615","GP_ID":"198850256","REF_FRAME":"TEME","ECCENTRICITY":"0.00012020","RCS_SIZE":"LARGE","LAUNCH_DATE":"2022-02-25","BSTAR":"0.00176930000000","REV_AT_EPOCH":"338","NORAD_CAT_ID":"51808","COUNTRY_CODE":"US","MEAN_MOTION_DDOT":"0.0000000000000","MEAN_ELEMENT_THEORY":"SGP4","PERIAPSIS":"349.657","EPOCH":"2022-03-15T22:00:00.999936","DECAY_DATE":null,"SEMIMAJOR_AXIS":"6728.601","RA_OF_ASC_NODE":"53.1268","MEAN_ANOMALY":"150.6886","ARG_OF_PERICENTER":"77.7902","ELEMENT_SET_NO":"999","EPHEMERIS_TYPE":"0","FILE":"3360930","OBJECT_NAME":"STARLINK-3609","SITE":"AFWTR","TLE_LINE2":"2 51808  53.2196  53.1268 0001202  77.7902 150.6886 15.72952615  3383","PERIOD":"91.548","TLE_LINE1":"1 51808U 22017AS  22074.91667824  .00252616  00000-0  17693-2 0  9992","CENTER_NAME":"EARTH","OBJECT_ID":"2022-017AS","MEAN_MOTION_DOT":"0.00252616","APOAPSIS":"351.274"},{"MEAN_ELEMENT_THEORY":"SGP4","PERIAPSIS":"349.102","EPOCH":"2022-03-15T22:00:00.999936","COUNTRY_CODE":"US","MEAN_MOTION_DDOT":"0.0000000000000","REV_AT_EPOCH":"338","NORAD_CAT_ID":"51809","GP_ID":"198850462","REF_FRAME":"TEME","MEAN_MOTION":"15.73175921","ECCENTRICITY":"0.00010810","RCS_SIZE":"LARGE","LAUNCH_DATE":"2022-02-25","BSTAR":"0.00018784000000","CLASSIFICATION_TYPE":"U","INCLINATION":"53.2192","TIME_SYSTEM":"UTC","OBJECT_TYPE":"PAYLOAD","MEAN_MOTION_DOT":"0.00025796","APOAPSIS":"350.556","CENTER_NAME":"EARTH","OBJECT_ID":"2022-017AT","TLE_LINE1":"1 51809U 22017AT  22074.91667824  .00025796  00000-0  18784-3 0  9993","ELEMENT_SET_NO":"999","EPHEMERIS_TYPE":"0","FILE":"3360930","OBJECT_NAME":"STARLINK-3607","SITE":"AFWTR","PERIOD":"91.535","TLE_LINE2":"2 51809  53.2192  53.1318 0001081  73.6148 152.2349 15.73175921  3388","ARG_OF_PERICENTER":"73.6148","RA_OF_ASC_NODE":"53.1318","MEAN_ANOMALY":"152.2349","SEMIMAJOR_AXIS":"6727.964","DECAY_DATE":null},{"ELEMENT_SET_NO":"999","FILE":"3360930","EPHEMERIS_TYPE":"0","OBJECT_NAME":"STARLINK-3613","SITE":"AFWTR","TLE_LINE2":"2 51810  53.2195  53.1242 0001331  55.2102 174.4943 15.72987563  3381","PERIOD":"91.546","TLE_LINE1":"1 51810U 22017AU  22074.91667824  .00153000  00000-0  10846-2 0  9995","CENTER_NAME":"EARTH","OBJECT_ID":"2022-017AU","MEAN_MOTION_DOT":"0.00153000","APOAPSIS":"351.261","DECAY_DATE":null,"SEMIMAJOR_AXIS":"6728.501","RA_OF_ASC_NODE":"53.1242","MEAN_ANOMALY":"174.4943","ARG_OF_PERICENTER":"55.2102","GP_ID":"198850358","REF_FRAME":"TEME","MEAN_MOTION":"15.72987563","ECCENTRICITY":"0.00013310","RCS_SIZE":"LARGE","LAUNCH_DATE":"2022-02-25","BSTAR":"0.00108460000000","REV_AT_EPOCH":"338","NORAD_CAT_ID":"51810","COUNTRY_CODE":"US","MEAN_MOTION_DDOT":"0.0000000000000","MEAN_ELEMENT_THEORY":"SGP4","PERIAPSIS":"349.470","EPOCH":"2022-03-15T22:00:00.999936","INCLINATION":"53.2195","TIME_SYSTEM":"UTC","OBJECT_TYPE":"PAYLOAD","CLASSIFICATION_TYPE":"U"},{"CENTER_NAME":"EARTH","OBJECT_ID":"2022-017AV","MEAN_MOTION_DOT":"0.00122961","APOAPSIS":"351.020","FILE":"3360930","OBJECT_NAME":"STARLINK-3569","EPHEMERIS_TYPE":"0","ELEMENT_SET_NO":"999","PERIOD":"91.542","TLE_LINE2":"2 51811  53.2192  53.1278 0001258  77.0696 150.6341 15.73055140  3393","SITE":"AFWTR","TLE_LINE1":"1 51811U 22017AV  22074.91667824  .00122961  00000-0  87314-3 0  9993","RA_OF_ASC_NODE":"53.1278","MEAN_ANOMALY":"150.6341","ARG_OF_PERICENTER":"77.0696","DECAY_DATE":null,"SEMIMAJOR_AXIS":"6728.308","COUNTRY_CODE":"US","MEAN_MOTION_DDOT":"0.0000000000000","EPOCH":"2022-03-15T22:00:00.999936","PERIAPSIS":"349.327","MEAN_ELEMENT_THEORY":"SGP4","ECCENTRICITY":"0.00012580","RCS_SIZE":"LARGE","GP_ID":"198850976","MEAN_MOTION":"15.73055140","REF_FRAME":"TEME","BSTAR":"0.00087314000000","LAUNCH_DATE":"2022-02-25","REV_AT_EPOCH":"339","NORAD_CAT_ID":"51811","CLASSIFICATION_TYPE":"U","INCLINATION":"53.2192","OBJECT_TYPE":"PAYLOAD","TIME_SYSTEM":"UTC"},{"OBJECT_ID":"2022-017AW","CENTER_NAME":"EARTH","APOAPSIS":"351.165","MEAN_MOTION_DOT":"0.00122244","TLE_LINE2":"2 51812  53.2194  53.1229 0001320  85.4799 144.9144 15.73018746  3397","PERIOD":"91.544","SITE":"AFWTR","FILE":"3360930","EPHEMERIS_TYPE":"0","OBJECT_NAME":"STARLINK-3610","ELEMENT_SET_NO":"999","TLE_LINE1":"1 51812U 22017AW  22074.91667824  .00122244  00000-0  86950-3 0  9993","MEAN_ANOMALY":"144.9144","RA_OF_ASC_NODE":"53.1229","ARG_OF_PERICENTER":"85.4799","DECAY_DATE":null,"SEMIMAJOR_AXIS":"6728.412","MEAN_MOTION_DDOT":"0.0000000000000","COUNTRY_CODE":"US","EPOCH":"2022-03-15T22:00:00.999936","MEAN_ELEMENT_THEORY":"SGP4","PERIAPSIS":"349.389","BSTAR":"0.00086950000000","LAUNCH_DATE":"2022-02-25","RCS_SIZE":"LARGE","ECCENTRICITY":"0.00013200","GP_ID":"198850570","MEAN_MOTION":"15.73018746","REF_FRAME":"TEME","NORAD_CAT_ID":"51812","REV_AT_EPOCH":"339","CLASSIFICATION_TYPE":"U","OBJECT_TYPE":"PAYLOAD","TIME_SYSTEM":"UTC","INCLINATION":"53.2194"},{"MEAN_MOTION_DDOT":"0.0000000000000","COUNTRY_CODE":"US","MEAN_ELEMENT_THEORY":"SGP4","PERIAPSIS":"349.728","EPOCH":"2022-03-15T22:00:00.999936","LAUNCH_DATE":"2022-02-25","BSTAR":"0.00120950000000","GP_ID":"198850775","REF_FRAME":"TEME","MEAN_MOTION":"15.72993575","RCS_SIZE":"LARGE","ECCENTRICITY":"0.00009220","NORAD_CAT_ID":"51813","REV_AT_EPOCH":"339","CLASSIFICATION_TYPE":"U","TIME_SYSTEM":"UTC","OBJECT_TYPE":"PAYLOAD","INCLINATION":"53.2191","OBJECT_ID":"2022-017AX","CENTER_NAME":"EARTH","APOAPSIS":"350.969","MEAN_MOTION_DOT":"0.00171106","SITE":"AFWTR","PERIOD":"91.545","TLE_LINE2":"2 51813  53.2191  53.1251 0000922  83.1598 145.9800 15.72993575  3390","ELEMENT_SET_NO":"999","OBJECT_NAME":"STARLINK-3552","FILE":"3360930","EPHEMERIS_TYPE":"0","TLE_LINE1":"1 51813U 22017AX  22074.91667824  .00171106  00000-0  12095-2 0  9993","MEAN_ANOMALY":"145.9800","RA_OF_ASC_NODE":"53.1251","ARG_OF_PERICENTER":"83.1598","DECAY_DATE":null,"SEMIMAJOR_AXIS":"6728.484"}];
